#aV2015  3 10  0  0  0.00000000     288 DD+AD WGS84 FIT  NGA
## 1835 172800.00000000   300.00000000 57091 0.0000000000000
+   31     1  2  3  4  5  6  7  8  9 10 11 12 13 14 15 16 17
+         18 19 20 21 22 23 24 25 27 28 29 30 31 32  0  0  0
+          0  0  0  0  0  0  0  0  0  0  0  0  0  0  0  0  0
+          0  0  0  0  0  0  0  0  0  0  0  0  0  0  0  0  0
+          0  0  0  0  0  0  0  0  0  0  0  0  0  0  0  0  0
++         2  2  2  2  2  2  2  2  2  2  2  2  2  2  2  2  2
++         2  2  2  2  2  2  2  2  2  2  2  2  2  2  0  0  0
++         0  0  0  0  0  0  0  0  0  0  0  0  0  0  0  0  0
++         0  0  0  0  0  0  0  0  0  0  0  0  0  0  0  0  0
++         0  0  0  0  0  0  0  0  0  0  0  0  0  0  0  0  0
%c cc cc ccc ccc cccc cccc cccc cccc ccccc ccccc ccccc ccccc
%c cc cc ccc ccc cccc cccc cccc cccc ccccc ccccc ccccc ccccc
%f  0.0000000  0.000000000  0.00000000000  0.000000000000000
%f  0.0000000  0.000000000  0.00000000000  0.000000000000000
%i    0    0    0    0      0      0      0      0         0
%i    0    0    0    0      0      0      0      0         0
/*      NGA, ST. LOUIS,MO.                                  
/*   EPHEMERIS COMPUTED FROM  1 DAYS OF DATA                
/*   EPOCHA SMOOTHER                                       
/* CCCCCCCCCCCCCCCCCCCCCCCCCCCCCCCCCCCCCCCCCCCCCCCCCCCCCCCCC
*  2015  3 10 23 10  0.00000000
P  1    686.302879 -16128.801906 -21108.839292     -8.112387                    
V  1  25088.035060  -9231.908668   8059.704203      0.004499                    
P  2 -20513.790828  14939.810721   7323.387306    552.776860                    
V  2  -9661.333787    376.444157 -29705.815498      0.023296                    
P  3  -8729.720880 -20061.431946 -15022.389024    249.145389                    
V  3  16394.023287  10037.516748 -22961.398395      0.175954                    
P  4  10695.011364 -17816.179809 -16709.185790     -8.784542                    
V  4  20025.041847  -6040.081756  19895.096206     -0.007822                    
P  5 -10625.589738  11345.638331  21491.960445   -268.583716                    
V  5 -21747.640517 -16758.068415  -1724.151473      0.049794                    
P  6 -25131.103373   5175.529509  -6840.658537    104.838245                    
V  6   7023.107575  -5758.280928 -30180.549355      0.106806                    
P  7 -13642.419156  -9950.818435  20687.265583    446.679889                    
V  7  23999.918398  -9823.228730  10803.085156      0.030188                    
P  8  23100.754320 -10582.684913   6708.088519     18.358544                    
V  8   8634.569899    -75.585984 -31371.590956      0.002817                    
P  9  -8649.123388 -19482.891949  15826.514930   -109.411138                    
V  9   4636.266067 -19690.605019 -21702.623095     -0.101300                    
P 10 -22634.073346  -6423.220400  12342.070904   -166.644126                    
V 10 -11076.282842 -12051.018811 -25368.030629     -0.014143                    
P 11   4422.947140 -21113.445750 -15935.407919   -563.385842                    
V 11  16740.725339 -10677.718133  19582.107861     -0.026373                    
P 12   5502.623293  19575.839727 -17295.028515    275.602725                    
V 12 -17168.557188 -13213.609901 -20304.593059      0.030329                    
P 13 -12709.096263  20694.796265  10745.918975    -95.465240                    
V 13   1390.848424 -13888.292390  27879.814202     -0.033469                    
P 14  15168.984261    176.801240 -21555.800171     80.113800                    
V 14  -5489.879862  27382.784242  -3742.664584     -0.034822                    
P 15  -3027.320083  26192.156211    893.542789   -236.925843                    
V 15  -3827.353623  -1603.702364  31320.164025     -0.022019                    
P 16  10958.656442  -9688.142884  22121.267515   -149.278196                    
V 16  21134.884056  18583.391775  -1958.005413      0.034442                    
P 17 -14572.934032  -2861.234434 -21729.197736   -160.222714                    
V 17   4972.975376 -27821.665725    117.479220     -0.022601                    
P 18  21525.707787  15829.338433   -249.714588    385.378439                    
V 18  -1488.155846   3462.256314  30757.425968      0.028083                    
P 19   8389.057251 -24628.804624   3734.427688   -503.462796                    
V 19   1733.440481   5560.235316  31750.683983     -0.013268                    
P 20 -23471.239024  -5724.643982  11011.607317    298.249376                    
V 20 -10045.540665 -10646.959697 -26417.847190      0.040868                    
P 21  17864.345212   7645.136350  18955.810708   -425.018265                    
V 21 -20259.776990  10169.282649  15179.099206     -0.039289                    
P 22  23073.228100   6500.171206 -11399.876131    327.122143                    
V 22   9902.688001  11523.495393  25929.546225      0.041292                    
P 23  -1841.659063 -25222.512734   7489.449327    -94.217956                    
V 23   4626.620785  -8899.510107 -29783.624769     -0.025647                    
P 24  -3884.272260  17047.470790 -19984.273172    -44.768963                    
V 24 -23827.506507   8797.285980  12296.527707     -0.006485                    
P 25  16800.891216  19328.461844  -7444.014166     -9.901299                    
V 25  -8555.301697  -4102.253698 -30151.385558     -0.030638                    
P 27  12235.915122 -18944.668557  13940.064706     56.987252                    
V 27   -245.652930  17868.577746  24581.007089      0.026659                    
P 28 -21875.184369 -12463.197086  -7979.645144    425.054185                    
V 28  -6928.934070  -8671.021591  30114.360743      0.025996                    
P 29   4948.691971  22484.238947  13311.736625    597.026666                    
V 29  -5041.878264  16155.790731 -25430.230284      0.024966                    
P 30 -21992.848907  -3617.801689  14476.042421    -80.764187                    
V 30  16829.420828  -7715.609486  23574.203993      0.023774                    
P 31  25574.551269  -6837.459282  -3683.808232    321.460151                    
V 31  -3784.695753   3574.702286 -31411.833616     -0.008943                    
P 32   6006.301872 -15080.446785 -21109.653086   -204.445426                    
V 32  20018.908697  17741.480974  -6441.558534      0.093470                    
EOF
